start=new Date('2022-04-02T00:00:00.000Z').valueOf();
sats=[{"LAUNCH_DATE":"2020-09-03","TLE_LINE1":"1 46358U 20062AK  22091.89096390  .00002362  00000-0  17730-3 0  9998","MEAN_MOTION":"15.06419867","CENTER_NAME":"EARTH","TIME_SYSTEM":"UTC","TLE_LINE2":"2 46358  53.0549 351.1361 0001946  53.6817 306.4352 15.06419867 87605","SEMIMAJOR_AXIS":"6925.288","CLASSIFICATION_TYPE":"U","MEAN_ANOMALY":"306.4352","INCLINATION":"53.0549","COUNTRY_CODE":"US","BSTAR":"0.00017730000000","MEAN_ELEMENT_THEORY":"SGP4","NORAD_CAT_ID":"46358","OBJECT_ID":"2020-062AK","PERIOD":"95.591","OBJECT_TYPE":"PAYLOAD","FILE":"3383778","RCS_SIZE":"LARGE","ELEMENT_SET_NO":"999","DECAY_DATE":null,"APOAPSIS":"548.500","REF_FRAME":"TEME","OBJECT_NAME":"STARLINK-1690","GP_ID":"200262284","MEAN_MOTION_DDOT":"0.0000000000000","SITE":"AFETR","EPOCH":"2022-04-01T21:22:59.280960","RA_OF_ASC_NODE":"351.1361","REV_AT_EPOCH":"8760","ECCENTRICITY":"0.00019460","EPHEMERIS_TYPE":"0","ARG_OF_PERICENTER":"53.6817","PERIAPSIS":"545.805","MEAN_MOTION_DOT":"0.00002362"},{"INCLINATION":"53.0545","MEAN_ELEMENT_THEORY":"SGP4","COUNTRY_CODE":"US","BSTAR":"0.00040902000000","NORAD_CAT_ID":"46359","OBJECT_ID":"2020-062AL","OBJECT_TYPE":"PAYLOAD","FILE":"3383778","PERIOD":"95.591","MEAN_MOTION":"15.06418263","CENTER_NAME":"EARTH","TIME_SYSTEM":"UTC","LAUNCH_DATE":"2020-09-03","TLE_LINE1":"1 46359U 20062AL  22091.87115700  .00005819  00000-0  40902-3 0  9991","TLE_LINE2":"2 46359  53.0545 306.2431 0001917  49.9658 310.1499 15.06418263 88222","SEMIMAJOR_AXIS":"6925.293","MEAN_ANOMALY":"310.1499","CLASSIFICATION_TYPE":"U","GP_ID":"200262527","OBJECT_NAME":"STARLINK-1707","SITE":"AFETR","MEAN_MOTION_DDOT":"0.0000000000000","EPHEMERIS_TYPE":"0","ECCENTRICITY":"0.00019170","ARG_OF_PERICENTER":"49.9658","RA_OF_ASC_NODE":"306.2431","EPOCH":"2022-04-01T20:54:27.964800","REV_AT_EPOCH":"8822","PERIAPSIS":"545.830","MEAN_MOTION_DOT":"0.00005819","DECAY_DATE":null,"RCS_SIZE":"LARGE","ELEMENT_SET_NO":"999","APOAPSIS":"548.485","REF_FRAME":"TEME"},{"OBJECT_ID":"2020-062AM","NORAD_CAT_ID":"46360","FILE":"3383778","OBJECT_TYPE":"PAYLOAD","PERIOD":"95.592","INCLINATION":"53.0552","MEAN_ELEMENT_THEORY":"SGP4","BSTAR":"0.00010805000000","COUNTRY_CODE":"US","SEMIMAJOR_AXIS":"6925.324","MEAN_ANOMALY":"306.2834","CLASSIFICATION_TYPE":"U","TIME_SYSTEM":"UTC","MEAN_MOTION":"15.06408046","CENTER_NAME":"EARTH","TLE_LINE1":"1 46360U 20062AM  22091.89326827  .00001329  00000-0  10805-3 0  9990","LAUNCH_DATE":"2020-09-03","TLE_LINE2":"2 46360  53.0552 306.1436 0001552  53.8298 306.2834 15.06408046 88233","ARG_OF_PERICENTER":"53.8298","EPHEMERIS_TYPE":"0","ECCENTRICITY":"0.00015520","REV_AT_EPOCH":"8823","EPOCH":"2022-04-01T21:26:18.378528","RA_OF_ASC_NODE":"306.1436","MEAN_MOTION_DOT":"0.00001329","PERIAPSIS":"546.114","OBJECT_NAME":"STARLINK-1713","GP_ID":"200260782","SITE":"AFETR","MEAN_MOTION_DDOT":"0.0000000000000","APOAPSIS":"548.264","REF_FRAME":"TEME","DECAY_DATE":null,"ELEMENT_SET_NO":"999","RCS_SIZE":"LARGE"},{"MEAN_ELEMENT_THEORY":"SGP4","COUNTRY_CODE":"US","BSTAR":"0.00029536000000","INCLINATION":"53.0524","FILE":"3383778","OBJECT_TYPE":"PAYLOAD","PERIOD":"95.591","NORAD_CAT_ID":"46361","OBJECT_ID":"2020-062AN","TLE_LINE2":"2 46361  53.0524 306.2817 0001453  65.8999 294.2142 15.06413997 88226","TIME_SYSTEM":"UTC","MEAN_MOTION":"15.06413997","CENTER_NAME":"EARTH","TLE_LINE1":"1 46361U 20062AN  22091.86378582  .00004122  00000-0  29536-3 0  9998","LAUNCH_DATE":"2020-09-03","MEAN_ANOMALY":"294.2142","CLASSIFICATION_TYPE":"U","SEMIMAJOR_AXIS":"6925.306","SITE":"AFETR","MEAN_MOTION_DDOT":"0.0000000000000","GP_ID":"200262033","OBJECT_NAME":"STARLINK-1722","MEAN_MOTION_DOT":"0.00004122","PERIAPSIS":"546.164","ARG_OF_PERICENTER":"65.8999","ECCENTRICITY":"0.00014530","EPHEMERIS_TYPE":"0","REV_AT_EPOCH":"8822","RA_OF_ASC_NODE":"306.2817","EPOCH":"2022-04-01T20:43:51.094848","DECAY_DATE":null,"ELEMENT_SET_NO":"999","RCS_SIZE":"LARGE","REF_FRAME":"TEME","APOAPSIS":"548.177"},{"INCLINATION":"53.0561","COUNTRY_CODE":"US","BSTAR":"0.00021191000000","MEAN_ELEMENT_THEORY":"SGP4","NORAD_CAT_ID":"46362","OBJECT_ID":"2020-062AP","PERIOD":"95.592","FILE":"3383778","OBJECT_TYPE":"PAYLOAD","TLE_LINE1":"1 46362U 20062AP  22091.84166933  .00002877  00000-0  21191-3 0  9996","LAUNCH_DATE":"2020-09-03","TIME_SYSTEM":"UTC","MEAN_MOTION":"15.06406154","CENTER_NAME":"EARTH","TLE_LINE2":"2 46362  53.0561 306.3654 0001637  63.7908 296.3250 15.06406154 88229","SEMIMAJOR_AXIS":"6925.330","CLASSIFICATION_TYPE":"U","MEAN_ANOMALY":"296.3250","GP_ID":"200261784","OBJECT_NAME":"STARLINK-1726","MEAN_MOTION_DDOT":"0.0000000000000","SITE":"AFETR","REV_AT_EPOCH":"8822","RA_OF_ASC_NODE":"306.3654","EPOCH":"2022-04-01T20:12:00.230112","ARG_OF_PERICENTER":"63.7908","EPHEMERIS_TYPE":"0","ECCENTRICITY":"0.00016370","PERIAPSIS":"546.061","MEAN_MOTION_DOT":"0.00002877","ELEMENT_SET_NO":"999","RCS_SIZE":"LARGE","DECAY_DATE":null,"APOAPSIS":"548.328","REF_FRAME":"TEME"},{"OBJECT_ID":"2020-062AQ","NORAD_CAT_ID":"46363","OBJECT_TYPE":"PAYLOAD","FILE":"3383778","PERIOD":"95.591","INCLINATION":"53.0537","MEAN_ELEMENT_THEORY":"SGP4","BSTAR":"0.00053414000000","COUNTRY_CODE":"US","SEMIMAJOR_AXIS":"6925.292","MEAN_ANOMALY":"294.6932","CLASSIFICATION_TYPE":"U","MEAN_MOTION":"15.06418507","CENTER_NAME":"EARTH","TIME_SYSTEM":"UTC","LAUNCH_DATE":"2020-09-03","TLE_LINE1":"1 46363U 20062AQ  22091.83429777  .00007687  00000-0  53414-3 0  9991","TLE_LINE2":"2 46363  53.0537 306.3936 0001411  65.4204 294.6932 15.06418507 88227","EPHEMERIS_TYPE":"0","ECCENTRICITY":"0.00014110","ARG_OF_PERICENTER":"65.4204","RA_OF_ASC_NODE":"306.3936","EPOCH":"2022-04-01T20:01:23.327328","REV_AT_EPOCH":"8822","MEAN_MOTION_DOT":"0.00007687","PERIAPSIS":"546.180","GP_ID":"200263028","OBJECT_NAME":"STARLINK-1739","SITE":"AFETR","MEAN_MOTION_DDOT":"0.0000000000000","APOAPSIS":"548.134","REF_FRAME":"TEME","DECAY_DATE":null,"RCS_SIZE":"LARGE","ELEMENT_SET_NO":"999"},{"TLE_LINE2":"2 46364  53.0473 286.3497 0002679 177.5785 182.5217 15.06415315 88508","LAUNCH_DATE":"2020-09-03","TLE_LINE1":"1 46364U 20062AR  22091.85731017  .00007593  00000-0  52786-3 0  9994","MEAN_MOTION":"15.06415315","CENTER_NAME":"EARTH","TIME_SYSTEM":"UTC","CLASSIFICATION_TYPE":"U","MEAN_ANOMALY":"182.5217","SEMIMAJOR_AXIS":"6925.302","BSTAR":"0.00052786000000","COUNTRY_CODE":"US","MEAN_ELEMENT_THEORY":"SGP4","INCLINATION":"53.0473","PERIOD":"95.591","OBJECT_TYPE":"PAYLOAD","FILE":"3383778","OBJECT_ID":"2020-062AR","NORAD_CAT_ID":"46364","RCS_SIZE":"LARGE","ELEMENT_SET_NO":"999","DECAY_DATE":null,"REF_FRAME":"TEME","APOAPSIS":"549.022","MEAN_MOTION_DDOT":"0.0000000000000","SITE":"AFETR","OBJECT_NAME":"STARLINK-1763","GP_ID":"200261283","PERIAPSIS":"545.311","MEAN_MOTION_DOT":"0.00007593","RA_OF_ASC_NODE":"286.3497","EPOCH":"2022-04-01T20:34:31.598688","REV_AT_EPOCH":"8850","EPHEMERIS_TYPE":"0","ECCENTRICITY":"0.00026790","ARG_OF_PERICENTER":"177.5785"},{"FILE":"3383390","OBJECT_TYPE":"PAYLOAD","PERIOD":"95.591","NORAD_CAT_ID":"46365","OBJECT_ID":"2020-062AS","MEAN_ELEMENT_THEORY":"SGP4","COUNTRY_CODE":"US","BSTAR":"0.00022642000000","INCLINATION":"53.0535","MEAN_ANOMALY":"297.8930","CLASSIFICATION_TYPE":"U","SEMIMAJOR_AXIS":"6925.311","TLE_LINE2":"2 46365  53.0535 306.1976 0001706  62.2231 297.8930 15.06412124 88380","TIME_SYSTEM":"UTC","MEAN_MOTION":"15.06412124","CENTER_NAME":"EARTH","TLE_LINE1":"1 46365U 20062AS  22091.87853402  .00003094  00000-0  22642-3 0  9990","LAUNCH_DATE":"2020-09-03","PERIAPSIS":"545.995","MEAN_MOTION_DOT":"0.00003094","ARG_OF_PERICENTER":"62.2231","ECCENTRICITY":"0.00017060","EPHEMERIS_TYPE":"0","REV_AT_EPOCH":"8838","RA_OF_ASC_NODE":"306.1976","EPOCH":"2022-04-01T21:05:05.339328","SITE":"AFETR","MEAN_MOTION_DDOT":"0.0000000000000","OBJECT_NAME":"STARLINK-1550","GP_ID":"200234476","REF_FRAME":"TEME","APOAPSIS":"548.358","DECAY_DATE":null,"ELEMENT_SET_NO":"999","RCS_SIZE":"LARGE"},{"EPOCH":"2022-04-01T20:49:09.666336","RA_OF_ASC_NODE":"306.2530","REV_AT_EPOCH":"8822","ECCENTRICITY":"0.00014940","EPHEMERIS_TYPE":"0","ARG_OF_PERICENTER":"70.8049","MEAN_MOTION_DOT":"0.00005653","PERIAPSIS":"546.141","GP_ID":"200262285","OBJECT_NAME":"STARLINK-1651","MEAN_MOTION_DDOT":"0.0000000000000","SITE":"AFETR","APOAPSIS":"548.210","REF_FRAME":"TEME","RCS_SIZE":"LARGE","ELEMENT_SET_NO":"999","DECAY_DATE":null,"NORAD_CAT_ID":"46366","OBJECT_ID":"2020-062AT","PERIOD":"95.591","OBJECT_TYPE":"PAYLOAD","FILE":"3383778","INCLINATION":"53.0541","BSTAR":"0.00039793000000","COUNTRY_CODE":"US","MEAN_ELEMENT_THEORY":"SGP4","SEMIMAJOR_AXIS":"6925.311","CLASSIFICATION_TYPE":"U","MEAN_ANOMALY":"289.3101","LAUNCH_DATE":"2020-09-03","TLE_LINE1":"1 46366U 20062AT  22091.86747299  .00005653  00000-0  39793-3 0  9994","MEAN_MOTION":"15.06412366","CENTER_NAME":"EARTH","TIME_SYSTEM":"UTC","TLE_LINE2":"2 46366  53.0541 306.2530 0001494  70.8049 289.3101 15.06412366 88228"},{"PERIAPSIS":"545.959","MEAN_MOTION_DOT":"0.00010274","ECCENTRICITY":"0.00017010","EPHEMERIS_TYPE":"0","ARG_OF_PERICENTER":"63.0443","EPOCH":"2022-04-01T20:48:29.048832","RA_OF_ASC_NODE":"331.2574","REV_AT_EPOCH":"8788","SITE":"AFETR","MEAN_MOTION_DDOT":"0.0000000000000","GP_ID":"200262528","OBJECT_NAME":"STARLINK-1658","REF_FRAME":"TEME","APOAPSIS":"548.315","DECAY_DATE":null,"RCS_SIZE":"LARGE","ELEMENT_SET_NO":"999","OBJECT_TYPE":"PAYLOAD","FILE":"3383778","PERIOD":"95.591","NORAD_CAT_ID":"46368","OBJECT_ID":"2020-062AV","MEAN_ELEMENT_THEORY":"SGP4","BSTAR":"0.00070717000000","COUNTRY_CODE":"US","INCLINATION":"53.0537","MEAN_ANOMALY":"297.0720","CLASSIFICATION_TYPE":"U","SEMIMAJOR_AXIS":"6925.272","TLE_LINE2":"2 46368  53.0537 331.2574 0001701  63.0443 297.0720 15.06425010 87888","MEAN_MOTION":"15.06425010","CENTER_NAME":"EARTH","TIME_SYSTEM":"UTC","LAUNCH_DATE":"2020-09-03","TLE_LINE1":"1 46368U 20062AV  22091.86700288  .00010274  00000-0  70717-3 0  9999"}];
